ELYSIUM STAR 2 & LFF    
1 43760U 18099C   24268.16400150  .00115643  00000+0  26964-2 0  9994
2 43760  97.5022 337.1801 0005685 255.4120 104.6496 15.41783617318390
